[{"OBJECT_NAME":"EUTELSAT 9B","OBJECT_ID":"2016-005A","EPOCH":"2026-03-07T06:22:38.729856","MEAN_MOTION":1.00270713,"ECCENTRICITY":0.0004409,"INCLINATION":0.0319,"RA_OF_ASC_NODE":63.8569,"ARG_OF_PERICENTER":262.8787,"MEAN_ANOMALY":302.882,"EPHEMERIS_TYPE":0,"CLASSIFICATION_TYPE":"U","NORAD_CAT_ID":41310,"ELEMENT_SET_NO":999,"REV_AT_EPOCH":3709,"BSTAR":0,"MEAN_MOTION_DOT":5.9e-7,"MEAN_MOTION_DDOT":0},{"OBJECT_NAME":"EUTELSAT 65 WEST A","OBJECT_ID":"2016-014A","EPOCH":"2026-03-07T06:45:46.618848","MEAN_MOTION":1.00271514,"ECCENTRICITY":0.0002185,"INCLINATION":0.0757,"RA_OF_ASC_NODE":45.1517,"ARG_OF_PERICENTER":302.888,"MEAN_ANOMALY":213.1978,"EPHEMERIS_TYPE":0,"CLASSIFICATION_TYPE":"U","NORAD_CAT_ID":41382,"ELEMENT_SET_NO":999,"REV_AT_EPOCH":3651,"BSTAR":0,"MEAN_MOTION_DOT":-2.78e-6,"MEAN_MOTION_DDOT":0},{"OBJECT_NAME":"EUTELSAT 117 WEST B","OBJECT_ID":"2016-038B","EPOCH":"2026-03-07T08:34:38.622144","MEAN_MOTION":1.00270967,"ECCENTRICITY":4.391e-5,"INCLINATION":0.0164,"RA_OF_ASC_NODE":306.7826,"ARG_OF_PERICENTER":312.095,"MEAN_ANOMALY":277.8575,"EPHEMERIS_TYPE":0,"CLASSIFICATION_TYPE":"U","NORAD_CAT_ID":41589,"ELEMENT_SET_NO":999,"REV_AT_EPOCH":3564,"BSTAR":0,"MEAN_MOTION_DOT":-1.3e-7,"MEAN_MOTION_DDOT":0},{"OBJECT_NAME":"EUTELSAT 172B","OBJECT_ID":"2017-029B","EPOCH":"2026-03-07T07:31:38.642880","MEAN_MOTION":1.00272863,"ECCENTRICITY":1.085e-5,"INCLINATION":0.0207,"RA_OF_ASC_NODE":151.8097,"ARG_OF_PERICENTER":277.2152,"MEAN_ANOMALY":20.8955,"EPHEMERIS_TYPE":0,"CLASSIFICATION_TYPE":"U","NORAD_CAT_ID":42741,"ELEMENT_SET_NO":999,"REV_AT_EPOCH":3271,"BSTAR":0,"MEAN_MOTION_DOT":-8.0e-8,"MEAN_MOTION_DDOT":0},{"OBJECT_NAME":"EUTELSAT 7C","OBJECT_ID":"2019-034B","EPOCH":"2026-03-07T06:22:38.729856","MEAN_MOTION":1.00270994,"ECCENTRICITY":0.0003286,"INCLINATION":0.0723,"RA_OF_ASC_NODE":181.5051,"ARG_OF_PERICENTER":154.9583,"MEAN_ANOMALY":291.1317,"EPHEMERIS_TYPE":0,"CLASSIFICATION_TYPE":"U","NORAD_CAT_ID":44334,"ELEMENT_SET_NO":999,"REV_AT_EPOCH":581,"BSTAR":0,"MEAN_MOTION_DOT":4.6e-7,"MEAN_MOTION_DDOT":0},{"OBJECT_NAME":"EUTELSAT 5 WEST B","OBJECT_ID":"2019-067A","EPOCH":"2026-03-07T07:02:52.482336","MEAN_MOTION":1.00273225,"ECCENTRICITY":0.00032227,"INCLINATION":0.0897,"RA_OF_ASC_NODE":313.6187,"ARG_OF_PERICENTER":44.5352,"MEAN_ANOMALY":267.5427,"EPHEMERIS_TYPE":0,"CLASSIFICATION_TYPE":"U","NORAD_CAT_ID":44624,"ELEMENT_SET_NO":999,"REV_AT_EPOCH":2341,"BSTAR":0,"MEAN_MOTION_DOT":-4.4e-7,"MEAN_MOTION_DDOT":0},{"OBJECT_NAME":"EUTELSAT KONNECT","OBJECT_ID":"2020-005B","EPOCH":"2026-03-07T07:06:22.146624","MEAN_MOTION":1.00272058,"ECCENTRICITY":0.00011209,"INCLINATION":0.0654,"RA_OF_ASC_NODE":97.9051,"ARG_OF_PERICENTER":229.7074,"MEAN_ANOMALY":311.1709,"EPHEMERIS_TYPE":0,"CLASSIFICATION_TYPE":"U","NORAD_CAT_ID":45027,"ELEMENT_SET_NO":999,"REV_AT_EPOCH":2331,"BSTAR":0,"MEAN_MOTION_DOT":4.7e-7,"MEAN_MOTION_DDOT":0},{"OBJECT_NAME":"EUTELSAT QUANTUM","OBJECT_ID":"2021-069B","EPOCH":"2026-03-07T07:58:38.502912","MEAN_MOTION":1.00272757,"ECCENTRICITY":0.00027441,"INCLINATION":0.0103,"RA_OF_ASC_NODE":194.6294,"ARG_OF_PERICENTER":154.3589,"MEAN_ANOMALY":343.3965,"EPHEMERIS_TYPE":0,"CLASSIFICATION_TYPE":"U","NORAD_CAT_ID":49056,"ELEMENT_SET_NO":999,"REV_AT_EPOCH":1690,"BSTAR":0,"MEAN_MOTION_DOT":1.24e-6,"MEAN_MOTION_DDOT":0},{"OBJECT_NAME":"EUTELSAT KONNECT VHTS","OBJECT_ID":"2022-110A","EPOCH":"2026-03-07T06:22:38.729856","MEAN_MOTION":1.00270952,"ECCENTRICITY":0.0002803,"INCLINATION":0.0591,"RA_OF_ASC_NODE":103.0083,"ARG_OF_PERICENTER":219.7648,"MEAN_ANOMALY":300.5486,"EPHEMERIS_TYPE":0,"CLASSIFICATION_TYPE":"U","NORAD_CAT_ID":53765,"ELEMENT_SET_NO":999,"REV_AT_EPOCH":581,"BSTAR":0,"MEAN_MOTION_DOT":1.5e-7,"MEAN_MOTION_DDOT":0},{"OBJECT_NAME":"EUTELSAT HOTBIRD 13F","OBJECT_ID":"2022-134A","EPOCH":"2026-03-07T07:08:06.979200","MEAN_MOTION":1.00273366,"ECCENTRICITY":0.00021571,"INCLINATION":0.0555,"RA_OF_ASC_NODE":296.3581,"ARG_OF_PERICENTER":68.4915,"MEAN_ANOMALY":280.1753,"EPHEMERIS_TYPE":0,"CLASSIFICATION_TYPE":"U","NORAD_CAT_ID":54048,"ELEMENT_SET_NO":999,"REV_AT_EPOCH":1235,"BSTAR":0,"MEAN_MOTION_DOT":8.5e-7,"MEAN_MOTION_DDOT":0},{"OBJECT_NAME":"EUTELSAT HOTBIRD 13G","OBJECT_ID":"2022-146A","EPOCH":"2026-03-06T22:46:38.904960","MEAN_MOTION":1.0027129,"ECCENTRICITY":0.0001685,"INCLINATION":0.0459,"RA_OF_ASC_NODE":227.8604,"ARG_OF_PERICENTER":304.5083,"MEAN_ANOMALY":346.9469,"EPHEMERIS_TYPE":0,"CLASSIFICATION_TYPE":"U","NORAD_CAT_ID":54225,"ELEMENT_SET_NO":999,"REV_AT_EPOCH":644,"BSTAR":0,"MEAN_MOTION_DOT":8.4e-7,"MEAN_MOTION_DDOT":0},{"OBJECT_NAME":"EUTELSAT 10B","OBJECT_ID":"2022-157A","EPOCH":"2026-03-07T06:22:38.729856","MEAN_MOTION":1.00269,"ECCENTRICITY":0.0001671,"INCLINATION":0.0587,"RA_OF_ASC_NODE":101.8151,"ARG_OF_PERICENTER":6.6962,"MEAN_ANOMALY":162.0683,"EPHEMERIS_TYPE":0,"CLASSIFICATION_TYPE":"U","NORAD_CAT_ID":54259,"ELEMENT_SET_NO":999,"REV_AT_EPOCH":1200,"BSTAR":0,"MEAN_MOTION_DOT":6.5e-7,"MEAN_MOTION_DDOT":0},{"OBJECT_NAME":"EUTELSAT 36D","OBJECT_ID":"2024-059A","EPOCH":"2026-03-07T07:14:28.868928","MEAN_MOTION":1.00271207,"ECCENTRICITY":2.1e-5,"INCLINATION":0.0024,"RA_OF_ASC_NODE":167.4958,"ARG_OF_PERICENTER":227.3984,"MEAN_ANOMALY":274.5773,"EPHEMERIS_TYPE":0,"CLASSIFICATION_TYPE":"U","NORAD_CAT_ID":59346,"ELEMENT_SET_NO":999,"REV_AT_EPOCH":712,"BSTAR":0,"MEAN_MOTION_DOT":1.54e-6,"MEAN_MOTION_DDOT":0}]
