EUTELSAT 9B             
1 41310U 16005A   26066.26572604  .00000059  00000+0  00000+0 0  9995
2 41310   0.0319  63.8569 0004409 262.8787 302.8820  1.00270713 37091
EUTELSAT 65 WEST A      
1 41382U 16014A   26066.28178957 -.00000278  00000+0  00000+0 0  9993
2 41382   0.0757  45.1517 0002185 302.8880 213.1978  1.00271514 36514
EUTELSAT 117 WEST B     
1 41589U 16038B   26066.35739146 -.00000013  00000+0  00000+0 0  9996
2 41589   0.0164 306.7826 0000439 312.0950 277.8575  1.00270967 35649
EUTELSAT 172B           
1 42741U 17029B   26066.31364170 -.00000008  00000+0  00000+0 0  9999
2 42741   0.0207 151.8097 0000108 277.2152  20.8955  1.00272863 32716
EUTELSAT 7C             
1 44334U 19034B   26066.26572604  .00000046  00000+0  00000+0 0  9995
2 44334   0.0723 181.5051 0003286 154.9583 291.1317  1.00270994  5817
EUTELSAT 5 WEST B       
1 44624U 19067A   26066.29366299 -.00000044  00000+0  00000+0 0  9996
2 44624   0.0897 313.6187 0003222  44.5352 267.5427  1.00273225 23412
EUTELSAT KONNECT        
1 45027U 20005B   26066.29608966  .00000047  00000+0  00000+0 0  9990
2 45027   0.0654  97.9051 0001120 229.7074 311.1709  1.00272058 23317
EUTELSAT QUANTUM        
1 49056U 21069B   26066.33239008  .00000124  00000+0  00000+0 0  9995
2 49056   0.0103 194.6294 0002744 154.3589 343.3965  1.00272757 16907
EUTELSAT KONNECT VHTS   
1 53765U 22110A   26066.26572604  .00000015  00000+0  00000+0 0  9998
2 53765   0.0591 103.0083 0002803 219.7648 300.5486  1.00270952  5814
EUTELSAT HOTBIRD 13F    
1 54048U 22134A   26066.29730300  .00000085  00000+0  00000+0 0  9998
2 54048   0.0555 296.3581 0002157  68.4915 280.1753  1.00273366 12355
EUTELSAT HOTBIRD 13G    
1 54225U 22146A   26065.94906140  .00000084  00000+0  00000+0 0  9995
2 54225   0.0459 227.8604 0001685 304.5083 346.9469  1.00271290  6447
EUTELSAT 10B            
1 54259U 22157A   26066.26572604  .00000065  00000+0  00000+0 0  9993
2 54259   0.0587 101.8151 0001671   6.6962 162.0683  1.00269000 12005
EUTELSAT 36D            
1 59346U 24059A   26066.30172302  .00000154  00000+0  00000+0 0  9993
2 59346   0.0024 167.4958 0000210 227.3984 274.5773  1.00271207  7128
